0 DELTA 1 DEB
1 08964U 75004AW  13282.42488892  .00000271  00000-0  11117-3 0  1057
2 08964 097.7132 229.6661 0106171 257.1529 253.6971 14.30612255957437
0 DELTA 1 DEB
1 08964U 75004AW  13284.45112481  .00000266  00000-0  10939-3 0  1066
2 08964 097.7136 231.4651 0106227 250.9793 249.2921 14.30613474957729
0 DELTA 1 DEB
1 08964U 75004AW  13286.47912983  .00000246  00000-0  10212-3 0  1078
2 08964 097.7141 233.2655 0106296 244.7945 254.0167 14.30614654958015
0 DELTA 1 DEB
1 08964U 75004AW  13288.84043661  .00000360  00000-0  14299-3 0  1086
2 08964 097.7147 235.3620 0106395 237.6047 175.3306 14.30616733958357
0 DELTA 1 DEB
1 08964U 75004AW  13291.44620705  .00000339  00000-0  13551-3 0  1093
2 08964 097.7152 237.6759 0106515 229.6724 275.7115 14.30618995958724
0 DELTA 1 DEB
1 08964U 75004AW  13293.47330958  .00000384  00000-0  15166-3 0  1102
2 08964 097.7154 239.4761 0106637 223.5088 275.8112 14.30620525959013
0 DELTA 1 DEB
1 08964U 75004AW  13295.83459990  .00000402  00000-0  15792-3 0  1119
2 08964 097.7155 241.5732 0106790 216.3483 197.0605 14.30622458959351
